{"type": "FeatureCollection", "features": [ {"type": "Feature", "properties": {"norad_id": 34610, "name": "COSMOS 2251 DEB", "group": "cosmos-2251-debris", "lat": -35.04763059285517, "lon": -120.91082150120094, "alt_km": 801.1727815792992, "timestamp": "2025-12-19T08:58:49.731788+00:00", "meta": {"OBJECT_NAME": "COSMOS 2251 DEB", "OBJECT_ID": "1993-036WF", "EPOCH": "2025-12-16T19:43:22.866816", "MEAN_MOTION": 14.07083274, "ECCENTRICITY": 0.01805005, "INCLINATION": 74.0182, "RA_OF_ASC_NODE": 255.1605, "ARG_OF_PERICENTER": 24.866, "MEAN_ANOMALY": 336.104, "EPHEMERIS_TYPE": 0, "CLASSIFICATION_TYPE": "U", "NORAD_CAT_ID": 34610, "ELEMENT_SET_NO": 999, "REV_AT_EPOCH": 85617, "BSTAR": 0.0012903668, "MEAN_MOTION_DOT": 2.479e-05, "MEAN_MOTION_DDOT": 0}, "tle": {"line1": "1 34610U 93036WF  25350.82179244  .00002479  00000+0  12904-2 0  9996", "line2": "2 34610  74.0182 255.1605 0180500  24.8660 336.1040 14.07083274856172"}}, "geometry": {"type": "Point", "coordinates": [-120.91082150120094, -35.04763059285517]}}, {"type": "Feature", "properties": {"norad_id": 34611, "name": "COSMOS 2251 DEB", "group": "cosmos-2251-debris", "lat": 65.23291354469015, "lon": 126.42027551661181, "alt_km": 646.9934532913303, "timestamp": "2025-12-19T08:58:49.731798+00:00", "meta": {"OBJECT_NAME": "COSMOS 2251 DEB", "OBJECT_ID": "1993-036WG", "EPOCH": "2025-12-18T16:52:50.570112", "MEAN_MOTION": 14.69610983, "ECCENTRICITY": 0.00220343, "INCLINATION": 74.0543, "RA_OF_ASC_NODE": 89.4237, "ARG_OF_PERICENTER": 128.8751, "MEAN_ANOMALY": 354.5786, "EPHEMERIS_TYPE": 0, "CLASSIFICATION_TYPE": "U", "NORAD_CAT_ID": 34611, "ELEMENT_SET_NO": 999, "REV_AT_EPOCH": 88478, "BSTAR": 0.0011381206, "MEAN_MOTION_DOT": 6.766e-05, "MEAN_MOTION_DDOT": 0}, "tle": {"line1": "1 34611U 93036WG  25352.70336308  .00006766  00000+0  11381-2 0  9993", "line2": "2 34611  74.0543  89.4237 0022034 128.8751 354.5786 14.69610983884786"}}, "geometry": {"type": "Point", "coordinates": [126.42027551661181, 65.23291354469015]}}, {"type": "Feature", "properties": {"norad_id": 34613, "name": "COSMOS 2251 DEB", "group": "cosmos-2251-debris", "lat": -29.160474194499542, "lon": 95.7426453479392, "alt_km": 840.068165468314, "timestamp": "2025-12-19T08:58:49.731809+00:00", "meta": {"OBJECT_NAME": "COSMOS 2251 DEB", "OBJECT_ID": "1993-036WJ", "EPOCH": "2025-12-16T00:58:31.243296", "MEAN_MOTION": 14.26454619, "ECCENTRICITY": 0.01102473, "INCLINATION": 73.9638, "RA_OF_ASC_NODE": 272.5587, "ARG_OF_PERICENTER": 103.5153, "MEAN_ANOMALY": 273.8209, "EPHEMERIS_TYPE": 0, "CLASSIFICATION_TYPE": "U", "NORAD_CAT_ID": 34613, "ELEMENT_SET_NO": 999, "REV_AT_EPOCH": 86510, "BSTAR": 0.00095440148, "MEAN_MOTION_DOT": 2.425e-05, "MEAN_MOTION_DDOT": 0}, "tle": {"line1": "1 34613U 93036WJ  25350.04063939  .00002425  00000+0  95440-3 0  9994", "line2": "2 34613  73.9638 272.5587 0110247 103.5153 273.8209 14.26454619865107"}}, "geometry": {"type": "Point", "coordinates": [95.7426453479392, -29.160474194499542]}}, {"type": "Feature", "properties": {"norad_id": 34614, "name": "COSMOS 2251 DEB", "group": "cosmos-2251-debris", "lat": -73.86454300988508, "lon": -116.03569078169086, "alt_km": 754.634893489012, "timestamp": "2025-12-19T08:58:49.731819+00:00", "meta": {"OBJECT_NAME": "COSMOS 2251 DEB", "OBJECT_ID": "1993-036WK", "EPOCH": "2025-12-16T00:21:28.707840", "MEAN_MOTION": 14.17601251, "ECCENTRICITY": 0.0198196, "INCLINATION": 73.8837, "RA_OF_ASC_NODE": 337.994, "ARG_OF_PERICENTER": 331.3985, "MEAN_ANOMALY": 83.6306, "EPHEMERIS_TYPE": 0, "CLASSIFICATION_TYPE": "U", "NORAD_CAT_ID": 34614, "ELEMENT_SET_NO": 999, "REV_AT_EPOCH": 84813, "BSTAR": 0.0047337499, "MEAN_MOTION_DOT": 0.00011666, "MEAN_MOTION_DDOT": 0}, "tle": {"line1": "1 34614U 93036WK  25350.01491560  .00011666  00000+0  47337-2 0  9995", "line2": "2 34614  73.8837 337.9940 0198196 331.3985  83.6306 14.17601251848135"}}, "geometry": {"type": "Point", "coordinates": [-116.03569078169086, -73.86454300988508]}}, {"type": "Feature", "properties": {"norad_id": 34615, "name": "COSMOS 2251 DEB", "group": "cosmos-2251-debris", "lat": 40.36314322147358, "lon": -62.38848206379617, "alt_km": 1306.8304589985419, "timestamp": "2025-12-19T08:58:49.731829+00:00", "meta": {"OBJECT_NAME": "COSMOS 2251 DEB", "OBJECT_ID": "1993-036WL", "EPOCH": "2025-12-18T06:54:04.948992", "MEAN_MOTION": 13.5220421, "ECCENTRICITY": 0.04007834, "INCLINATION": 74.0049, "RA_OF_ASC_NODE": 285.2433, "ARG_OF_PERICENTER": 191.3049, "MEAN_ANOMALY": 326.0224, "EPHEMERIS_TYPE": 0, "CLASSIFICATION_TYPE": "U", "NORAD_CAT_ID": 34615, "ELEMENT_SET_NO": 999, "REV_AT_EPOCH": 82890, "BSTAR": 6.5275002e-05, "MEAN_MOTION_DOT": 5e-07, "MEAN_MOTION_DDOT": 0}, "tle": {"line1": "1 34615U 93036WL  25352.28755728  .00000050  00000+0  65275-4 0  9994", "line2": "2 34615  74.0049 285.2433 0400783 191.3049 326.0224 13.52204210828907"}}, "geometry": {"type": "Point", "coordinates": [-62.38848206379617, 40.36314322147358]}}, {"type": "Feature", "properties": {"norad_id": 34619, "name": "COSMOS 2251 DEB", "group": "cosmos-2251-debris", "lat": 59.581620919212874, "lon": -21.974093742088456, "alt_km": 736.3740225642605, "timestamp": "2025-12-19T08:58:49.731839+00:00", "meta": {"OBJECT_NAME": "COSMOS 2251 DEB", "OBJECT_ID": "1993-036WQ", "EPOCH": "2025-12-18T14:24:49.076928", "MEAN_MOTION": 14.64658954, "ECCENTRICITY": 0.00947519, "INCLINATION": 74.0432, "RA_OF_ASC_NODE": 188.6767, "ARG_OF_PERICENTER": 282.1844, "MEAN_ANOMALY": 76.8723, "EPHEMERIS_TYPE": 0, "CLASSIFICATION_TYPE": "U", "NORAD_CAT_ID": 34619, "ELEMENT_SET_NO": 999, "REV_AT_EPOCH": 89384, "BSTAR": 0.00015524282, "MEAN_MOTION_DOT": 8.46e-06, "MEAN_MOTION_DDOT": 0}, "tle": {"line1": "1 34619U 93036WQ  25352.60056802  .00000846  00000+0  15524-3 0  9995", "line2": "2 34619  74.0432 188.6767 0094751 282.1844  76.8723 14.64658954893840"}}, "geometry": {"type": "Point", "coordinates": [-21.974093742088456, 59.581620919212874]}}, {"type": "Feature", "properties": {"norad_id": 34620, "name": "COSMOS 2251 DEB", "group": "cosmos-2251-debris", "lat": -14.077848870441136, "lon": -157.01120357207503, "alt_km": 745.3982536229896, "timestamp": "2025-12-19T08:58:49.731849+00:00", "meta": {"OBJECT_NAME": "COSMOS 2251 DEB", "OBJECT_ID": "1993-036WR", "EPOCH": "2025-12-17T15:37:43.675680", "MEAN_MOTION": 14.49177124, "ECCENTRICITY": 0.00800634, "INCLINATION": 74.051, "RA_OF_ASC_NODE": 210.3285, "ARG_OF_PERICENTER": 245.6066, "MEAN_ANOMALY": 113.6724, "EPHEMERIS_TYPE": 0, "CLASSIFICATION_TYPE": "U", "NORAD_CAT_ID": 34620, "ELEMENT_SET_NO": 999, "REV_AT_EPOCH": 86898, "BSTAR": 0.001540269, "MEAN_MOTION_DOT": 6.083e-05, "MEAN_MOTION_DDOT": 0}, "tle": {"line1": "1 34620U 93036WR  25351.65119995  .00006083  00000+0  15403-2 0  9998", "line2": "2 34620  74.0510 210.3285 0080063 245.6066 113.6724 14.49177124868984"}}, "geometry": {"type": "Point", "coordinates": [-157.01120357207503, -14.077848870441136]}}, {"type": "Feature", "properties": {"norad_id": 34622, "name": "COSMOS 2251 DEB", "group": "cosmos-2251-debris", "lat": 52.9112243984941, "lon": -42.6526071018444, "alt_km": 755.1688025972935, "timestamp": "2025-12-19T08:58:49.731859+00:00", "meta": {"OBJECT_NAME": "COSMOS 2251 DEB", "OBJECT_ID": "1993-036WT", "EPOCH": "2025-12-17T21:31:57.246240", "MEAN_MOTION": 14.22067123, "ECCENTRICITY": 0.01045787, "INCLINATION": 74.0427, "RA_OF_ASC_NODE": 297.7571, "ARG_OF_PERICENTER": 18.9913, "MEAN_ANOMALY": 37.9607, "EPHEMERIS_TYPE": 0, "CLASSIFICATION_TYPE": "U", "NORAD_CAT_ID": 34622, "ELEMENT_SET_NO": 999, "REV_AT_EPOCH": 86533, "BSTAR": 0.00082135127, "MEAN_MOTION_DOT": 1.896e-05, "MEAN_MOTION_DDOT": 0}, "tle": {"line1": "1 34622U 93036WT  25351.89719035  .00001896  00000+0  82135-3 0  9991", "line2": "2 34622  74.0427 297.7571 0104578  18.9913  37.9607 14.22067123865332"}}, "geometry": {"type": "Point", "coordinates": [-42.6526071018444, 52.9112243984941]}}, {"type": "Feature", "properties": {"norad_id": 34626, "name": "COSMOS 2251 DEB", "group": "cosmos-2251-debris", "lat": -2.8232839903245646, "lon": -49.814571888709175, "alt_km": 642.3433362750302, "timestamp": "2025-12-19T08:58:49.731870+00:00", "meta": {"OBJECT_NAME": "COSMOS 2251 DEB", "OBJECT_ID": "1993-036WX", "EPOCH": "2025-12-18T23:29:31.492608", "MEAN_MOTION": 14.72269313, "ECCENTRICITY": 0.00268804, "INCLINATION": 74.0483, "RA_OF_ASC_NODE": 311.762, "ARG_OF_PERICENTER": 38.0978, "MEAN_ANOMALY": 24.7285, "EPHEMERIS_TYPE": 0, "CLASSIFICATION_TYPE": "U", "NORAD_CAT_ID": 34626, "ELEMENT_SET_NO": 999, "REV_AT_EPOCH": 89236, "BSTAR": 0.00077481237, "MEAN_MOTION_DOT": 4.893e-05, "MEAN_MOTION_DDOT": 0}, "tle": {"line1": "1 34626U 93036WX  25352.97883672  .00004893  00000+0  77481-3 0  9992", "line2": "2 34626  74.0483 311.7620 0026880  38.0978  24.7285 14.72269313892362"}}, "geometry": {"type": "Point", "coordinates": [-49.814571888709175, -2.8232839903245646]}}, {"type": "Feature", "properties": {"norad_id": 34634, "name": "COSMOS 2251 DEB", "group": "cosmos-2251-debris", "lat": 48.91618676625219, "lon": -176.73425347632903, "alt_km": 671.3279197264828, "timestamp": "2025-12-19T08:58:49.731899+00:00", "meta": {"OBJECT_NAME": "COSMOS 2251 DEB", "OBJECT_ID": "1993-036XF", "EPOCH": "2025-12-18T13:17:53.371680", "MEAN_MOTION": 14.55673568, "ECCENTRICITY": 0.00438596, "INCLINATION": 74.0515, "RA_OF_ASC_NODE": 23.9646, "ARG_OF_PERICENTER": 129.6194, "MEAN_ANOMALY": 22.7895, "EPHEMERIS_TYPE": 0, "CLASSIFICATION_TYPE": "U", "NORAD_CAT_ID": 34634, "ELEMENT_SET_NO": 999, "REV_AT_EPOCH": 88866, "BSTAR": 0.00022055428, "MEAN_MOTION_DOT": 9.47e-06, "MEAN_MOTION_DDOT": 0}, "tle": {"line1": "1 34634U 93036XF  25352.55408995  .00000947  00000+0  22055-3 0  9999", "line2": "2 34634  74.0515  23.9646 0043859 129.6194  22.7895 14.55673568888664"}}, "geometry": {"type": "Point", "coordinates": [-176.73425347632903, 48.91618676625219]}}]}